NORAD_CAT_ID,OBJECT_NAME,OBJECT_TYPE,EPOCH,MEAN_MOTION,ECCENTRICITY,INCLINATION,RA_OF_ASC_NODE,ARG_OF_PERICENTER,MEAN_ANOMALY,BSTAR,MEAN_MOTION_DOT,MEAN_MOTION_DDOT,TLE_LINE0,TLE_LINE1,TLE_LINE2,SEMIMAJOR_AXIS,PERIOD,APOGEE,PERIGEE,DECAYED
50831.0,STARLINK-3299,PAYLOAD,2022-02-04 10:31:55,15.72970911,0.0004776,53.2153,57.7782,237.9865,122.0691,-0.0013767,-0.00187902,0.0,0 STARLINK-3299,1 50831U 22001AE  22035.43884139 -.00187902  00000-0 -13767-2 0  9999,2 50831  53.2153  57.7782 0004776 237.9865 122.0691 15.72970911  5792,6728.5480000000025,91.547,353.62699999999984,347.2,0.0
50831.0,STARLINK-3299,PAYLOAD,2022-02-04 16:37:48,15.73232155,0.000106,53.216,56.5205,305.0423,55.0498,-2.7739e-05,-4.516e-05,0.0,0 STARLINK-3299,1 50831U 22001AE  22035.69292268 -.00004516  00000-0 -27739-4 0  9998,2 50831  53.2160  56.5205 0001060 305.0423  55.0498 15.73232155  5834,6727.803000000001,91.531,350.38199999999995,348.955,0.0
50831.0,STARLINK-3299,PAYLOAD,2022-02-05 06:00:00,15.73242494,0.0002256,53.2155,53.7663,26.399,250.5021,-0.00041642,-0.0005877,0.0,0 STARLINK-3299,1 50831U 22001AE  22036.25001157 -.00058770  00000-0 -41642-3 0  9995,2 50831  53.2155  53.7663 0002256  26.3990 250.5021 15.73242494  5926,6727.774,91.531,351.157,348.121,0.0
50831.0,STARLINK-3299,PAYLOAD,2022-02-05 12:27:04,15.73229826,0.0002684,53.216,52.4348,20.9672,339.1458,4.4115e-05,5.582e-05,0.0,0 STARLINK-3299,1 50831U 22001AE  22036.51880144  .00005582  00000-0  44115-4 0  9995,2 50831  53.2160  52.4348 0002684  20.9672 339.1458 15.73229826  4707,6727.81,91.531,351.481,347.869,0.0
50831.0,STARLINK-3299,PAYLOAD,2022-02-05 22:00:01,15.73176234,0.0002183,53.2159,50.4657,27.0664,67.786,2.0965e-05,2.319e-05,0.0,0 STARLINK-3299,1 50831U 22001AE  22036.91668981  .00002319  00000-0  20965-4 0  9994,2 50831  53.2159  50.4657 0002183  27.0664  67.7860 15.73176234  6032,6727.9630000000025,91.535,351.297,348.3590000000001,0.0
50831.0,STARLINK-3299,PAYLOAD,2022-02-06 06:00:00,15.73148496,0.000231,53.2159,48.8178,21.5674,162.115,-0.00062016,-0.00086588,0.0,0 STARLINK-3299,1 50831U 22001AE  22037.25001157 -.00086588  00000-0 -62016-3 0  9992,2 50831  53.2159  48.8178 0002310  21.5674 162.1150 15.73148496  6089,6728.042,91.536,351.461,348.353,0.0
50831.0,STARLINK-3299,PAYLOAD,2022-02-06 14:00:01,15.73095914,0.0002332,53.2154,47.1687,18.2951,254.2676,0.00027241,0.00037615,0.0,0 STARLINK-3299,1 50831U 22001AE  22037.58335648  .00037615  00000-0  27241-3 0  9999,2 50831  53.2154  47.1687 0002332  18.2951 254.2676 15.73095914  6134,6728.191999999999,91.539,351.626,348.48800000000006,0.0
50831.0,STARLINK-3299,PAYLOAD,2022-02-06 22:00:00,15.73070611,0.0002118,53.2156,45.5176,25.2516,336.0752,0.001378,0.00196273,0.0,0 STARLINK-3299,1 50831U 22001AE  22037.91667824  .00196273  00000-0  13780-2 0  9998,2 50831  53.2156  45.5176 0002118  25.2516 336.0752 15.73070611  3697,6728.264,91.541,351.55400000000014,348.704,0.0
50831.0,STARLINK-3299,PAYLOAD,2022-02-07 07:08:36,15.73174403,0.0002554,53.2162,43.6337,29.0335,331.0827,0.00021384,0.00029465,0.0,0 STARLINK-3299,1 50831U 22001AE  22038.29764456  .00029465  00000-0  21384-3 0  9997,2 50831  53.2162  43.6337 0002554  29.0335 331.0827 15.73174403  6243,6727.968000000003,91.535,351.551,348.115,0.0
50831.0,STARLINK-3299,PAYLOAD,2022-02-07 11:43:02,15.73202366,0.0002347,53.2161,42.6899,28.4645,331.6503,0.00030342,0.00042184,0.0,0 STARLINK-3299,1 50831U 22001AE  22038.48822333  .00042184  00000-0  30342-3 0  9994,2 50831  53.2161  42.6899 0002347  28.4645 331.6503 15.73202366  6271,6727.888000000001,91.533,351.332,348.1740000000001,0.0
50831.0,STARLINK-3299,PAYLOAD,2022-02-07 22:00:00,15.73204879,0.0002132,53.2162,40.5691,23.9816,244.1577,0.00060932,0.00085794,0.0,0 STARLINK-3299,1 50831U 22001AE  22038.91667824  .00085794  00000-0  60932-3 0  9996,2 50831  53.2162  40.5691 0002132  23.9816 244.1577 15.73204879  3706,6727.880999999999,91.533,351.181,348.31199999999984,0.0
50831.0,STARLINK-3299,PAYLOAD,2022-02-08 06:00:00,15.732677300000002,0.0002318,53.2163,38.9213,23.0801,334.0284,-0.00056278,-0.00079105,0.0,0 STARLINK-3299,1 50831U 22001AE  22039.25001157 -.00079105  00000-0 -56278-3 0  9994,2 50831  53.2163  38.9213 0002318  23.0801 334.0284 15.73267730  6396,6727.7019999999975,91.529,351.12699999999984,348.0080000000001,0.0
50831.0,STARLINK-3299,PAYLOAD,2022-02-08 14:00:01,15.73244111,0.0002376,53.2156,37.2715,22.81,63.2716,-0.00051604,-0.0007257,0.0,0 STARLINK-3299,1 50831U 22001AE  22039.58334491 -.00072570  00000-0 -51604-3 0  9997,2 50831  53.2156  37.2715 0002376  22.8100  63.2716 15.73244111  3701,6727.769,91.531,351.233,348.036,0.0
50831.0,STARLINK-3299,PAYLOAD,2022-02-08 20:00:01,15.73160864,0.0002154,53.2158,36.0329,28.3512,34.5227,0.00065371,0.00091984,0.0,0 STARLINK-3299,1 50831U 22001AE  22039.83335648  .00091984  00000-0  65371-3 0  9994,2 50831  53.2158  36.0329 0002154  28.3512  34.5227 15.73160864  6492,6728.007,91.535,351.321,348.423,0.0
50831.0,STARLINK-3299,PAYLOAD,2022-02-08 22:00:01,15.73177104,0.0002142,53.2158,35.6203,29.7679,145.3292,0.0006108,0.00085902,0.0,0 STARLINK-3299,1 50831U 22001AE  22039.91668981  .00085902  00000-0  61080-3 0  9998,2 50831  53.2158  35.6203 0002142  29.7679 145.3292 15.73177104  3691,6727.96,91.535,351.267,348.384,0.0
50831.0,STARLINK-3299,PAYLOAD,2022-02-09 14:00:01,15.73232989,0.0002262,53.2161,32.323,21.0814,331.849,-9.9751e-05,-0.00014618,0.0,0 STARLINK-3299,1 50831U 22001AE  22040.58334491 -.00014618  00000-0 -99751-4 0  9994,2 50831  53.2161  32.3230 0002262  21.0814 331.8490 15.73232989  6607,6727.801,91.531,351.18800000000016,348.144,0.0
50831.0,STARLINK-3299,PAYLOAD,2022-02-10 14:00:01,15.73203087,0.0002153,53.2157,27.374,15.6947,244.1241,0.00011679,0.00015804,0.0,0 STARLINK-3299,1 50831U 22001AE  22041.58335648  .00015804  00000-0  11679-3 0  9998,2 50831  53.2157  27.3740 0002153  15.6947 244.1241 15.73203087  6761,6727.886,91.533,351.2,348.30300000000005,0.0
50831.0,STARLINK-3299,PAYLOAD,2022-02-10 22:00:00,15.73209241,0.0001942,53.2159,25.7232,20.9308,327.7603,0.00064109,0.00090364,0.0,0 STARLINK-3299,1 50831U 22001AE  22041.91667824  .00090364  00000-0  64109-3 0  9999,2 50831  53.2159  25.7232 0001942  20.9308 327.7603 15.73209241  3682,6727.869000000002,91.533,351.04,348.427,0.0
50831.0,STARLINK-3299,PAYLOAD,2022-02-11 05:40:17,15.73255918,0.0002011,53.2166,24.1431,30.6992,329.4145,0.00011352,0.00015378,0.0,0 STARLINK-3299,1 50831U 22001AE  22042.23631723  .00015378  00000-0  11352-3 0  9998,2 50831  53.2166  24.1431 0002011  30.6992 329.4145 15.73255918  6864,6727.736,91.53,350.954,348.24800000000016,0.0
50831.0,STARLINK-3299,PAYLOAD,2022-02-11 14:00:01,15.73283911,0.0002142,53.2161,22.4251,22.5531,144.1633,-0.00052843,-0.00074404,0.0,0 STARLINK-3299,1 50831U 22001AE  22042.58334491 -.00074404  00000-0 -52843-3 0  9995,2 50831  53.2161  22.4251 0002142  22.5531 144.1633 15.73283911  3702,6727.656,91.528,350.962,348.08,0.0
50831.0,STARLINK-3299,PAYLOAD,2022-02-11 22:00:01,15.73193316,0.000206,53.2164,20.774,28.044,227.7187,0.00039903,0.0005574,0.0,0 STARLINK-3299,1 50831U 22001AE  22042.91668981  .00055740  00000-0  39903-3 0  9998,2 50831  53.2164  20.7740 0002060  28.0440 227.7187 15.73193316  6971,6727.9140000000025,91.534,351.165,348.39300000000014,0.0
50831.0,STARLINK-3299,PAYLOAD,2022-02-12 14:00:01,15.73130487,0.0002194,53.2158,17.4761,28.7927,44.7721,-0.0006462,-0.0009009,0.0,0 STARLINK-3299,1 50831U 22001AE  22043.58334491 -.00090090  00000-0 -64620-3 0  9991,2 50831  53.2158  17.4761 0002194  28.7927  44.7721 15.73130487  3704,6728.093000000003,91.537,351.435,348.482,0.0
50831.0,STARLINK-3299,PAYLOAD,2022-02-12 22:00:00,15.73028122,0.0001948,53.2161,15.8258,30.6007,131.7537,0.0015552,0.00221869,0.0,0 STARLINK-3299,1 50831U 22001AE  22043.91667824  .00221869  00000-0  15552-2 0  9994,2 50831  53.2161  15.8258 0001948  30.6007 131.7537 15.73028122  7133,6728.385,91.543,351.561,348.94,0.0
50831.0,STARLINK-3299,PAYLOAD,2022-02-13 04:00:01,15.73229286,0.0002191,53.216,14.5901,28.6544,110.5207,-0.00051032,-0.00071731,0.0,0 STARLINK-3299,1 50831U 22001AE  22044.16668981 -.00071731  00000-0 -51032-3 0  9994,2 50831  53.2160  14.5901 0002191  28.6544 110.5207 15.73229286  7174,6727.812,91.531,351.151,348.20300000000015,0.0
50831.0,STARLINK-3299,PAYLOAD,2022-02-13 14:00:01,15.73245904,0.0002029,53.2163,12.5275,23.4249,316.8414,-0.0005357,-0.00075288,0.0,0 STARLINK-3299,1 50831U 22001AE  22044.58334491 -.00075288  00000-0 -53570-3 0  9996,2 50831  53.2163  12.5275 0002029  23.4249 316.8414 15.73245904  7237,6727.764,91.531,350.994,348.264,0.0
50831.0,STARLINK-3299,PAYLOAD,2022-02-14 06:00:00,15.73195155,0.0002184,53.2167,9.2294,21.3647,136.7736,-0.00054831,-0.00076867,0.0,0 STARLINK-3299,1 50831U 22001AE  22045.25001157 -.00076867  00000-0 -54831-3 0  9996,2 50831  53.2167   9.2294 0002184  21.3647 136.7736 15.73195155  7346,6727.909000000002,91.533,351.24300000000005,348.305,0.0
50831.0,STARLINK-3299,PAYLOAD,2022-02-14 14:00:01,15.73138866,0.0002066,53.2163,7.5787,25.3956,221.6338,0.00010717,0.00014407,0.0,0 STARLINK-3299,1 50831U 22001AE  22045.58334491  .00014407  00000-0  10717-3 0  9997,2 50831  53.2163   7.5787 0002066  25.3956 221.6338 15.73138866  3700,6728.069,91.537,351.324,348.5440000000001,0.0
50831.0,STARLINK-3299,PAYLOAD,2022-02-14 20:00:01,15.73131715,0.0001916,53.2163,6.3407,28.8464,194.8241,0.00059133,0.00082951,0.0,0 STARLINK-3299,1 50831U 22001AE  22045.83334491  .00082951  00000-0  59133-3 0  9999,2 50831  53.2163   6.3407 0001916  28.8464 194.8241 15.73131715  7435,6728.09,91.537,351.244,348.666,0.0
50831.0,STARLINK-3299,PAYLOAD,2022-02-15 14:00:01,15.73181613,0.0001946,53.2169,2.6303,21.2258,132.4848,-1.7845e-05,-3.123e-05,0.0,0 STARLINK-3299,1 50831U 22001AE  22046.58334491 -.00003123  00000-0 -17845-4 0  9993,2 50831  53.2169   2.6303 0001946  21.2258 132.4848 15.73181613  7552,6727.948,91.534,351.122,348.50300000000016,0.0
